PROBA-1                 
1 26958U 01049B   26095.24824444  .00002469  00000+0  16298-3 0  9997
2 26958  97.9625 101.2418 0055619  11.2047 349.0403 15.07205366332633
CUTE-1 (CO-55)          
1 27844U 03031E   26094.97812161  .00000458  00000+0  21713-3 0  9991
2 27844  98.6769 104.4513 0010325  43.9369 316.2630 14.24289350181251
CUBESAT XI-IV (CO-57)   
1 27848U 03031J   26095.00030604  .00000375  00000+0  18383-3 0  9991
2 27848  98.6802 104.2449 0010479  60.3929 299.8292 14.23580899180962
APRIZESAT 4             
1 35684U 09041D   26095.15819271  .00001361  00000+0  16877-3 0  9998
2 35684  98.1445 169.0207 0043012 196.7975 163.1816 14.83767003900530
APRIZESAT 3             
1 35686U 09041F   26095.13188980  .00002182  00000+0  19340-3 0  9994
2 35686  98.1950 244.9090 0061140 308.9068  50.6709 14.96000387905454
PROBA-2                 
1 36037U 09059B   26095.26869133  .00000350  00000+0  92093-4 0  9996
2 36037  98.2445 279.6326 0013969 141.9373 218.2814 14.54810240870925
APRIZESAT 5             
1 37792U 11044E   26094.76908847  .00001777  00000+0  23225-3 0  9996
2 37792  98.2422  25.7540 0051115 238.4929 121.1283 14.80936231787928
APRIZESAT 6             
1 37793U 11044F   26095.25645875  .00001386  00000+0  20265-3 0  9998
2 37793  98.2399   4.2586 0042372 320.8171 156.6325 14.76815569786388
PROBA-V                 
1 39159U 13021A   26095.23346276  .00000121  00000+0  71298-4 0  9993
2 39159  98.3543  77.4616 0004115   3.6709 356.4500 14.23581235670738
APRIZESAT 7             
1 39416U 13066A   26095.29525169  .00002578  00000+0  26059-3 0  9996
2 39416  97.7646  49.6026 0037581  92.8388 267.7132 14.91381289670369
APRIZESAT 8             
1 39425U 13066K   26095.29362962  .00001627  00000+0  18213-3 0  9993
2 39425  97.8160  43.8167 0046400 164.0034 196.2660 14.87498947668839
BUGSAT-1 (TITA)         
1 40014U 14033E   26095.26145297  .00007616  00000+0  40880-3 0  9990
2 40014  98.0410 183.5990 0029524  71.2495 289.1936 15.14874853644792
SAUDISAT 4              
1 40016U 14033G   26095.27881122  .00001087  00000+0  15026-3 0  9997
2 40016  97.7468 243.9816 0043760 311.8767  47.8715 14.79439616635297
APRIZESAT 9             
1 40018U 14033J   26095.30914132  .00001141  00000+0  17455-3 0  9990
2 40018  97.8936 230.3394 0067549  75.0086 285.8587 14.74132243632823
APRIZESAT 10            
1 40019U 14033K   26094.92770867  .00001166  00000+0  18979-3 0  9992
2 40019  97.9527 223.5736 0079708 146.9596 213.6627 14.70806738631487
TECHDEMOSAT-1 (TDS-1)   
1 40076U 14037H   26095.19787150  .00011074  00000+0  64571-3 0  9990
2 40076  98.3805  80.2587 0007458 142.7312 217.4435 15.12155029637199
