[{"OBJECT_NAME":"PROBA-1","OBJECT_ID":"2001-049B","EPOCH":"2026-04-05T05:57:28.319616","MEAN_MOTION":15.07205366,"ECCENTRICITY":0.0055619,"INCLINATION":97.9625,"RA_OF_ASC_NODE":101.2418,"ARG_OF_PERICENTER":11.2047,"MEAN_ANOMALY":349.0403,"EPHEMERIS_TYPE":0,"CLASSIFICATION_TYPE":"U","NORAD_CAT_ID":26958,"ELEMENT_SET_NO":999,"REV_AT_EPOCH":33263,"BSTAR":0.00016297765,"MEAN_MOTION_DOT":2.469e-5,"MEAN_MOTION_DDOT":0},{"OBJECT_NAME":"CUTE-1 (CO-55)","OBJECT_ID":"2003-031E","EPOCH":"2026-04-04T23:28:29.707104","MEAN_MOTION":14.2428935,"ECCENTRICITY":0.00103254,"INCLINATION":98.6769,"RA_OF_ASC_NODE":104.4513,"ARG_OF_PERICENTER":43.9369,"MEAN_ANOMALY":316.263,"EPHEMERIS_TYPE":0,"CLASSIFICATION_TYPE":"U","NORAD_CAT_ID":27844,"ELEMENT_SET_NO":999,"REV_AT_EPOCH":18125,"BSTAR":0.00021712788,"MEAN_MOTION_DOT":4.58e-6,"MEAN_MOTION_DDOT":0},{"OBJECT_NAME":"CUBESAT XI-IV (CO-57)","OBJECT_ID":"2003-031J","EPOCH":"2026-04-05T00:00:26.441856","MEAN_MOTION":14.23580899,"ECCENTRICITY":0.00104798,"INCLINATION":98.6802,"RA_OF_ASC_NODE":104.2449,"ARG_OF_PERICENTER":60.3929,"MEAN_ANOMALY":299.8292,"EPHEMERIS_TYPE":0,"CLASSIFICATION_TYPE":"U","NORAD_CAT_ID":27848,"ELEMENT_SET_NO":999,"REV_AT_EPOCH":18096,"BSTAR":0.00018383126,"MEAN_MOTION_DOT":3.75e-6,"MEAN_MOTION_DDOT":0},{"OBJECT_NAME":"APRIZESAT 4","OBJECT_ID":"2009-041D","EPOCH":"2026-04-05T03:47:47.850144","MEAN_MOTION":14.83767003,"ECCENTRICITY":0.00430121,"INCLINATION":98.1445,"RA_OF_ASC_NODE":169.0207,"ARG_OF_PERICENTER":196.7975,"MEAN_ANOMALY":163.1816,"EPHEMERIS_TYPE":0,"CLASSIFICATION_TYPE":"U","NORAD_CAT_ID":35684,"ELEMENT_SET_NO":999,"REV_AT_EPOCH":90053,"BSTAR":0.00016876508,"MEAN_MOTION_DOT":1.361e-5,"MEAN_MOTION_DDOT":0},{"OBJECT_NAME":"APRIZESAT 3","OBJECT_ID":"2009-041F","EPOCH":"2026-04-05T03:09:55.278720","MEAN_MOTION":14.96000387,"ECCENTRICITY":0.00611409,"INCLINATION":98.195,"RA_OF_ASC_NODE":244.909,"ARG_OF_PERICENTER":308.9068,"MEAN_ANOMALY":50.6709,"EPHEMERIS_TYPE":0,"CLASSIFICATION_TYPE":"U","NORAD_CAT_ID":35686,"ELEMENT_SET_NO":999,"REV_AT_EPOCH":90545,"BSTAR":0.00019339605,"MEAN_MOTION_DOT":2.182e-5,"MEAN_MOTION_DDOT":0},{"OBJECT_NAME":"PROBA-2","OBJECT_ID":"2009-059B","EPOCH":"2026-04-05T06:26:54.930912","MEAN_MOTION":14.5481024,"ECCENTRICITY":0.0013969,"INCLINATION":98.2445,"RA_OF_ASC_NODE":279.6326,"ARG_OF_PERICENTER":141.9373,"MEAN_ANOMALY":218.2814,"EPHEMERIS_TYPE":0,"CLASSIFICATION_TYPE":"U","NORAD_CAT_ID":36037,"ELEMENT_SET_NO":999,"REV_AT_EPOCH":87092,"BSTAR":9.2092856e-5,"MEAN_MOTION_DOT":3.5e-6,"MEAN_MOTION_DDOT":0},{"OBJECT_NAME":"APRIZESAT 5","OBJECT_ID":"2011-044E","EPOCH":"2026-04-04T18:27:29.243808","MEAN_MOTION":14.80936231,"ECCENTRICITY":0.00511151,"INCLINATION":98.2422,"RA_OF_ASC_NODE":25.754,"ARG_OF_PERICENTER":238.4929,"MEAN_ANOMALY":121.1283,"EPHEMERIS_TYPE":0,"CLASSIFICATION_TYPE":"U","NORAD_CAT_ID":37792,"ELEMENT_SET_NO":999,"REV_AT_EPOCH":78792,"BSTAR":0.00023225086,"MEAN_MOTION_DOT":1.777e-5,"MEAN_MOTION_DDOT":0},{"OBJECT_NAME":"APRIZESAT 6","OBJECT_ID":"2011-044F","EPOCH":"2026-04-05T06:09:18.036000","MEAN_MOTION":14.76815569,"ECCENTRICITY":0.00423729,"INCLINATION":98.2399,"RA_OF_ASC_NODE":4.2586,"ARG_OF_PERICENTER":320.8171,"MEAN_ANOMALY":156.6325,"EPHEMERIS_TYPE":0,"CLASSIFICATION_TYPE":"U","NORAD_CAT_ID":37793,"ELEMENT_SET_NO":999,"REV_AT_EPOCH":78638,"BSTAR":0.00020265359,"MEAN_MOTION_DOT":1.386e-5,"MEAN_MOTION_DDOT":0},{"OBJECT_NAME":"PROBA-V","OBJECT_ID":"2013-021A","EPOCH":"2026-04-05T05:36:11.182464","MEAN_MOTION":14.23581235,"ECCENTRICITY":0.00041155,"INCLINATION":98.3543,"RA_OF_ASC_NODE":77.4616,"ARG_OF_PERICENTER":3.6709,"MEAN_ANOMALY":356.45,"EPHEMERIS_TYPE":0,"CLASSIFICATION_TYPE":"U","NORAD_CAT_ID":39159,"ELEMENT_SET_NO":999,"REV_AT_EPOCH":67073,"BSTAR":7.1297638e-5,"MEAN_MOTION_DOT":1.21e-6,"MEAN_MOTION_DDOT":0},{"OBJECT_NAME":"APRIZESAT 7","OBJECT_ID":"2013-066A","EPOCH":"2026-04-05T07:05:09.746016","MEAN_MOTION":14.91381289,"ECCENTRICITY":0.00375814,"INCLINATION":97.7646,"RA_OF_ASC_NODE":49.6026,"ARG_OF_PERICENTER":92.8388,"MEAN_ANOMALY":267.7132,"EPHEMERIS_TYPE":0,"CLASSIFICATION_TYPE":"U","NORAD_CAT_ID":39416,"ELEMENT_SET_NO":999,"REV_AT_EPOCH":67036,"BSTAR":0.00026058564,"MEAN_MOTION_DOT":2.578e-5,"MEAN_MOTION_DDOT":0},{"OBJECT_NAME":"APRIZESAT 8","OBJECT_ID":"2013-066K","EPOCH":"2026-04-05T07:02:49.599168","MEAN_MOTION":14.87498947,"ECCENTRICITY":0.00464007,"INCLINATION":97.816,"RA_OF_ASC_NODE":43.8167,"ARG_OF_PERICENTER":164.0034,"MEAN_ANOMALY":196.266,"EPHEMERIS_TYPE":0,"CLASSIFICATION_TYPE":"U","NORAD_CAT_ID":39425,"ELEMENT_SET_NO":999,"REV_AT_EPOCH":66883,"BSTAR":0.00018213107,"MEAN_MOTION_DOT":1.627e-5,"MEAN_MOTION_DDOT":0},{"OBJECT_NAME":"BUGSAT-1 (TITA)","OBJECT_ID":"2014-033E","EPOCH":"2026-04-05T06:16:29.536608","MEAN_MOTION":15.14874853,"ECCENTRICITY":0.00295241,"INCLINATION":98.041,"RA_OF_ASC_NODE":183.599,"ARG_OF_PERICENTER":71.2495,"MEAN_ANOMALY":289.1936,"EPHEMERIS_TYPE":0,"CLASSIFICATION_TYPE":"U","NORAD_CAT_ID":40014,"ELEMENT_SET_NO":999,"REV_AT_EPOCH":64479,"BSTAR":0.00040879804,"MEAN_MOTION_DOT":7.616e-5,"MEAN_MOTION_DDOT":0},{"OBJECT_NAME":"SAUDISAT 4","OBJECT_ID":"2014-033G","EPOCH":"2026-04-05T06:41:29.289408","MEAN_MOTION":14.79439616,"ECCENTRICITY":0.00437606,"INCLINATION":97.7468,"RA_OF_ASC_NODE":243.9816,"ARG_OF_PERICENTER":311.8767,"MEAN_ANOMALY":47.8715,"EPHEMERIS_TYPE":0,"CLASSIFICATION_TYPE":"U","NORAD_CAT_ID":40016,"ELEMENT_SET_NO":999,"REV_AT_EPOCH":63529,"BSTAR":0.00015026087,"MEAN_MOTION_DOT":1.087e-5,"MEAN_MOTION_DDOT":0},{"OBJECT_NAME":"APRIZESAT 9","OBJECT_ID":"2014-033J","EPOCH":"2026-04-05T07:25:09.810048","MEAN_MOTION":14.74132243,"ECCENTRICITY":0.00675499,"INCLINATION":97.8936,"RA_OF_ASC_NODE":230.3394,"ARG_OF_PERICENTER":75.0086,"MEAN_ANOMALY":285.8587,"EPHEMERIS_TYPE":0,"CLASSIFICATION_TYPE":"U","NORAD_CAT_ID":40018,"ELEMENT_SET_NO":999,"REV_AT_EPOCH":63282,"BSTAR":0.00017455277,"MEAN_MOTION_DOT":1.141e-5,"MEAN_MOTION_DDOT":0},{"OBJECT_NAME":"APRIZESAT 10","OBJECT_ID":"2014-033K","EPOCH":"2026-04-04T22:15:54.029088","MEAN_MOTION":14.70806738,"ECCENTRICITY":0.00797084,"INCLINATION":97.9527,"RA_OF_ASC_NODE":223.5736,"ARG_OF_PERICENTER":146.9596,"MEAN_ANOMALY":213.6627,"EPHEMERIS_TYPE":0,"CLASSIFICATION_TYPE":"U","NORAD_CAT_ID":40019,"ELEMENT_SET_NO":999,"REV_AT_EPOCH":63148,"BSTAR":0.00018978704,"MEAN_MOTION_DOT":1.166e-5,"MEAN_MOTION_DDOT":0},{"OBJECT_NAME":"TECHDEMOSAT-1 (TDS-1)","OBJECT_ID":"2014-037H","EPOCH":"2026-04-05T04:44:56.097600","MEAN_MOTION":15.12155029,"ECCENTRICITY":0.00074584,"INCLINATION":98.3805,"RA_OF_ASC_NODE":80.2587,"ARG_OF_PERICENTER":142.7312,"MEAN_ANOMALY":217.4435,"EPHEMERIS_TYPE":0,"CLASSIFICATION_TYPE":"U","NORAD_CAT_ID":40076,"ELEMENT_SET_NO":999,"REV_AT_EPOCH":63719,"BSTAR":0.0006457072,"MEAN_MOTION_DOT":0.00011074,"MEAN_MOTION_DDOT":0}]
